{
 "type": "FeatureCollection",
 "backupOf": "https://services7.arcgis.com/TGjun5cqf5Jwp2Ad/arcgis/rest/services/Thilfaushi_Phase_II_Reclamation/FeatureServer/0",
 "features": [
  {
   "type": "Feature",
   "id": 1,
   "geometry": {
    "type": "Polygon",
    "coordinates": [
     [
      [
       73.4214475790578,
       4.18946616245707
      ],
      [
       73.4273740820203,
       4.18859829625657
      ],
      [
       73.4285378913773,
       4.18845934199562
      ],
      [
       73.428344564527,
       4.18694913002139
      ],
      [
       73.4271203693384,
       4.18708988590894
      ],
      [
       73.4212192170779,
       4.18799908425285
      ],
      [
       73.4214475790578,
       4.18946616245707
      ]
     ]
    ]
   },
   "properties": {
    "FID": 1,
    "Id": 0,
    "Area_SQM": 133149.181341,
    "Shape__Area": 133149.1367034912,
    "Shape__Length": 1927.2425741802872
   }
  },
  {
   "type": "Feature",
   "id": 2,
   "geometry": {
    "type": "Polygon",
    "coordinates": [
     [
      [
       73.4370295137032,
       4.18587881478583
      ],
      [
       73.4296815223563,
       4.18676070637657
      ],
      [
       73.4298688496261,
       4.18834269740365
      ],
      [
       73.4372365679843,
       4.18752549538367
      ],
      [
       73.4370295137032,
       4.18587881478583
      ]
     ]
    ]
   },
   "properties": {
    "FID": 2,
    "Id": 0,
    "Area_SQM": 147876.983315,
    "Shape__Area": 147876.99536132812,
    "Shape__Length": 2004.2392626212754
   }
  },
  {
   "type": "Feature",
   "id": 3,
   "geometry": {
    "type": "Polygon",
    "coordinates": [
     [
      [
       73.4209210630488,
       4.18957367949231
      ],
      [
       73.4195444722398,
       4.18198228958313
      ],
      [
       73.4191461262748,
       4.18203873309701
      ],
      [
       73.4187487899741,
       4.1821019428895
      ],
      [
       73.4183525777476,
       4.18217190381587
      ],
      [
       73.4179576022187,
       4.18224859349333
      ],
      [
       73.417563978711,
       4.18233199044914
      ],
      [
       73.4171718180461,
       4.18242207229743
      ],
      [
       73.4167812337589,
       4.18251881123203
      ],
      [
       73.416360737062,
       4.18262746553573
      ],
      [
       73.4159420559222,
       4.18274296908951
      ],
      [
       73.4155252993787,
       4.18286528955705
      ],
      [
       73.4151105782687,
       4.18299439641474
      ],
      [
       73.4146980025378,
       4.18313025461569
      ],
      [
       73.4142876803321,
       4.18327282820536
      ],
      [
       73.4138797207022,
       4.1834220794227
      ],
      [
       73.4134742318017,
       4.18357796869643
      ],
      [
       73.4130713199849,
       4.18374045554764
      ],
      [
       73.4126710925123,
       4.18390949678649
      ],
      [
       73.4122736539462,
       4.18408504740936
      ],
      [
       73.4118791106523,
       4.18426706151219
      ],
      [
       73.4117899597563,
       4.18432107824564
      ],
      [
       73.41170459628,
       4.18438094557789
      ],
      [
       73.4116234008614,
       4.18444639659936
      ],
      [
       73.4115467343722,
       4.18451713994346
      ],
      [
       73.4114749388173,
       4.18459286069274
      ],
      [
       73.4114083337294,
       4.18467322127585
      ],
      [
       73.4113472161661,
       4.18475786327624
      ],
      [
       73.4112918589024,
       4.18484641014141
      ],
      [
       73.4112425068264,
       4.18493846807989
      ],
      [
       73.4111993823455,
       4.18503362516787
      ],
      [
       73.4111626754617,
       4.18513145946803
      ],
      [
       73.4111325500878,
       4.1852315336163
      ],
      [
       73.4111091404282,
       4.18533340295346
      ],
      [
       73.4110925518828,
       4.18543661371837
      ],
      [
       73.411082857441,
       4.18554070484917
      ],
      [
       73.4110801003725,
       4.18564521341481
      ],
      [
       73.4110842924276,
       4.18574967370701
      ],
      [
       73.4110954156317,
       4.18585362086117
      ],
      [
       73.4111134204813,
       4.18595659175714
      ],
      [
       73.4111382268417,
       4.18605812682956
      ],
      [
       73.4111697230366,
       4.18615777458781
      ],
      [
       73.4112077703518,
       4.18625509162505
      ],
      [
       73.4112521985317,
       4.18634964260914
      ],
      [
       73.4113028093654,
       4.18644100842894
      ],
      [
       73.4114616744865,
       4.18668663991604
      ],
      [
       73.4116252775282,
       4.18692911585925
      ],
      [
       73.4117935574343,
       4.18716834298576
      ],
      [
       73.4119664504371,
       4.18740423253882
      ],
      [
       73.4121438900721,
       4.187636693043
      ],
      [
       73.4123258089664,
       4.18786563663833
      ],
      [
       73.4125121379436,
       4.18809097636534
      ],
      [
       73.4127028069228,
       4.18831262707128
      ],
      [
       73.4128270939357,
       4.18846090785428
      ],
      [
       73.4129565485461,
       4.18860466207421
      ],
      [
       73.413091006288,
       4.18874370943148
      ],
      [
       73.4132302990846,
       4.18887787323638
      ],
      [
       73.413374250736,
       4.18900698492167
      ],
      [
       73.4135226787239,
       4.1891308822374
      ],
      [
       73.4136753969178,
       4.18924940744798
      ],
      [
       73.4138322119626,
       4.18936241184639
      ],
      [
       73.4139929250858,
       4.18946975304492
      ],
      [
       73.4141573348014,
       4.18957129407631
      ],
      [
       73.4143252332958,
       4.18966690881252
      ],
      [
       73.4144964082444,
       4.18975647473366
      ],
      [
       73.4146706436972,
       4.18983988016452
      ],
      [
       73.4148477209907,
       4.18991701885049
      ],
      [
       73.4150274142372,
       4.18998779356568
      ],
      [
       73.415246021282,
       4.19003899234342
      ],
      [
       73.4154661285762,
       4.19008323432733
      ],
      [
       73.4156875182282,
       4.19012047566367
      ],
      [
       73.4159099687287,
       4.1901506797263
      ],
      [
       73.4161332576527,
       4.19017381712207
      ],
      [
       73.4163571634665,
       4.19018986298157
      ],
      [
       73.4165814619123,
       4.19019880328214
      ],
      [
       73.4168059305261,
       4.19020062762236
      ],
      [
       73.4170303441235,
       4.1901953346389
      ],
      [
       73.4172544793085,
       4.19018292930272
      ],
      [
       73.4174781126688,
       4.19016342472405
      ],
      [
       73.4177010207809,
       4.19013683943941
      ],
      [
       73.4179229820044,
       4.19010320103259
      ],
      [
       73.4209210630488,
       4.18957367949231
      ]
     ]
    ]
   },
   "properties": {
    "FID": 3,
    "Id": 0,
    "Area_SQM": 715329.864215,
    "Shape__Area": 715329.8892822266,
    "Shape__Length": 3264.2948754577424
   }
  },
  {
   "type": "Feature",
   "id": 4,
   "geometry": {
    "type": "Polygon",
    "coordinates": [
     [
      [
       73.4263445766704,
       4.18167694607922
      ],
      [
       73.4221934008268,
       4.1817098968808
      ],
      [
       73.4208086388101,
       4.18183797022089
      ],
      [
       73.4207435218806,
       4.18184722041148
      ],
      [
       73.4206796100789,
       4.18186278351863
      ],
      [
       73.4206175080788,
       4.18188451245089
      ],
      [
       73.4205578044573,
       4.18191220220676
      ],
      [
       73.4205010662922,
       4.18194558895942
      ],
      [
       73.4204478292395,
       4.18198435727148
      ],
      [
       73.4203985993392,
       4.18202813828982
      ],
      [
       73.4203538439895,
       4.18207651877087
      ],
      [
       73.4203139847449,
       4.18212903925726
      ],
      [
       73.4202794018037,
       4.18218520222594
      ],
      [
       73.4202504213906,
       4.18224447568003
      ],
      [
       73.4202273193523,
       4.18230629677338
      ],
      [
       73.4202103130329,
       4.18237008083755
      ],
      [
       73.420199565774,
       4.1824352231995
      ],
      [
       73.4201951778945,
       4.1825011054937
      ],
      [
       73.4201971911766,
       4.18256710471462
      ],
      [
       73.4202055870615,
       4.18263259411735
      ],
      [
       73.4206088709461,
       4.18490010407206
      ],
      [
       73.428823025482,
       4.18451497724159
      ],
      [
       73.4356195822751,
       4.18381467046956
      ],
      [
       73.4365139049092,
       4.18368147703115
      ],
      [
       73.4401562168568,
       4.18334857602534
      ],
      [
       73.4366073900264,
       4.18336550672343
      ],
      [
       73.4365934961244,
       4.18336425174953
      ],
      [
       73.4365524378651,
       4.18337131492193
      ],
      [
       73.4365342811528,
       4.18337443931963
      ],
      [
       73.4365062597076,
       4.18339436305162
      ],
      [
       73.4364723090588,
       4.18340960759073
      ],
      [
       73.4364209983014,
       4.18343914680672
      ],
      [
       73.4363341503886,
       4.1834668361138
      ],
      [
       73.4362942249953,
       4.18346675628552
      ],
      [
       73.4362516965168,
       4.1834666712503
      ],
      [
       73.4362169600996,
       4.1834761797371
      ],
      [
       73.4361769846208,
       4.18350135008649
      ],
      [
       73.4361595784515,
       4.18352569467766
      ],
      [
       73.4360854052117,
       4.1835204024249
      ],
      [
       73.436073159098,
       4.18350806886363
      ],
      [
       73.4360530660867,
       4.18350016447749
      ],
      [
       73.436027503605,
       4.18350011335758
      ],
      [
       73.4360043271354,
       4.18350006700849
      ],
      [
       73.4359753563235,
       4.18350000907073
      ],
      [
       73.435956602585,
       4.18350441733656
      ],
      [
       73.4359373541205,
       4.18350894036891
      ],
      [
       73.4359259185584,
       4.1835089174984
      ],
      [
       73.4358915918882,
       4.18351801350131
      ],
      [
       73.4358656638352,
       4.18353061255877
      ],
      [
       73.4358482538955,
       4.18354459602498
      ],
      [
       73.4358380323892,
       4.18355280604562
      ],
      [
       73.4358029069466,
       4.18355273579092
      ],
      [
       73.4357899643378,
       4.18354824061982
      ],
      [
       73.4357818036573,
       4.18353830903412
      ],
      [
       73.4357634182095,
       4.18352869793611
      ],
      [
       73.4357326436409,
       4.18352526407034
      ],
      [
       73.4357002562878,
       4.18351390489601
      ],
      [
       73.4356600139219,
       4.18350697939657
      ],
      [
       73.4356237598465,
       4.18351827180788
      ],
      [
       73.4356084141777,
       4.18353688965398
      ],
      [
       73.4355843393895,
       4.18354561818419
      ],
      [
       73.4355397917049,
       4.18356176752654
      ],
      [
       73.435496840109,
       4.18355476696384
      ],
      [
       73.4354459916776,
       4.1835546652387
      ],
      [
       73.4354159201898,
       4.18355460507745
      ],
      [
       73.4353984073458,
       4.18356279779025
      ],
      [
       73.4353756906839,
       4.18357342544579
      ],
      [
       73.4353415236159,
       4.18357335708742
      ],
      [
       73.4353119988668,
       4.18357329801577
      ],
      [
       73.4352819583629,
       4.18355762797714
      ],
      [
       73.4352406020422,
       4.18355058537577
      ],
      [
       73.4351984421773,
       4.18356038281862
      ],
      [
       73.4351809285505,
       4.18356034777527
      ],
      [
       73.4350533919765,
       4.18357044463231
      ],
      [
       73.4349637908945,
       4.18357753808424
      ],
      [
       73.434913041554,
       4.18357743652218
      ],
      [
       73.434869187236,
       4.18357734875613
      ],
      [
       73.4347990424212,
       4.18356553686955
      ],
      [
       73.4347592413518,
       4.18356545720982
      ],
      [
       73.434702254699,
       4.18355300605185
      ],
      [
       73.4346713714348,
       4.18354625930592
      ],
      [
       73.4346233287704,
       4.18354616314342
      ],
      [
       73.4345829818683,
       4.18354608238252
      ],
      [
       73.4345286103245,
       4.18354210022881
      ],
      [
       73.4344720845632,
       4.18353796002023
      ],
      [
       73.4344299529916,
       4.18353487415244
      ],
      [
       73.4343169731955,
       4.18351270581061
      ],
      [
       73.4342299533497,
       4.1835231106371
      ],
      [
       73.4341385608011,
       4.18352292765206
      ],
      [
       73.4340462891529,
       4.18352274289606
      ],
      [
       73.433913338333,
       4.18355326966491
      ],
      [
       73.4338604128468,
       4.18356542118852
      ],
      [
       73.4338144148361,
       4.18356532907053
      ],
      [
       73.4337511443589,
       4.18355127180598
      ],
      [
       73.4337098823768,
       4.18354210410383
      ],
      [
       73.43365805686,
       4.18353059016818
      ],
      [
       73.4336036231271,
       4.18352754925219
      ],
      [
       73.4335728022674,
       4.18352748751947
      ],
      [
       73.4335445210852,
       4.18353168943915
      ],
      [
       73.433514426751,
       4.1835531137135
      ],
      [
       73.4334830533786,
       4.18357544881372
      ],
      [
       73.4334423398593,
       4.18360303934935
      ],
      [
       73.4334174661892,
       4.18361989537089
      ],
      [
       73.4333927933344,
       4.18363042860481
      ],
      [
       73.4333559959956,
       4.18363453296905
      ],
      [
       73.4333084469511,
       4.18363443771258
      ],
      [
       73.4332650478256,
       4.18364235875244
      ],
      [
       73.4332414282512,
       4.18365136393705
      ],
      [
       73.4332265000447,
       4.18365705582693
      ],
      [
       73.433226077551,
       4.1836570830152
      ],
      [
       73.433230773172,
       4.18368102956071
      ],
      [
       73.4332206209401,
       4.18368338041639
      ],
      [
       73.4332135442406,
       4.1836841403585
      ],
      [
       73.4330461755475,
       4.18370439064571
      ],
      [
       73.4330444236715,
       4.18369395188626
      ],
      [
       73.4330431734713,
       4.1836939493812
      ],
      [
       73.4330422702954,
       4.18368974507535
      ],
      [
       73.4330400127623,
       4.18366634150198
      ],
      [
       73.4330327331348,
       4.18365998473675
      ],
      [
       73.4330167795721,
       4.18365995277002
      ],
      [
       73.4330043800807,
       4.18365548306367
      ],
      [
       73.4329899727001,
       4.18365789864195
      ],
      [
       73.4329753486012,
       4.18365786933834
      ],
      [
       73.4329598478971,
       4.18365250354071
      ],
      [
       73.4329424594872,
       4.18365246869734
      ],
      [
       73.4329337985937,
       4.18366220109661
      ],
      [
       73.4329247139264,
       4.18366218289222
      ],
      [
       73.4329111977141,
       4.18366215580743
      ],
      [
       73.4329003355679,
       4.18366457939247
      ],
      [
       73.4328868801861,
       4.18366702852846
      ],
      [
       73.4328809045116,
       4.18366897717579
      ],
      [
       73.4328715314862,
       4.18366902260147
      ],
      [
       73.4328670929103,
       4.18367345675865
      ],
      [
       73.4328218838746,
       4.18367430848944
      ],
      [
       73.4328022582771,
       4.18368187018718
      ],
      [
       73.4327822297481,
       4.18368958662431
      ],
      [
       73.432764357652,
       4.18368955080734
      ],
      [
       73.4327282446263,
       4.18369513602107
      ],
      [
       73.4326947979527,
       4.18370061624659
      ],
      [
       73.4326777765231,
       4.18370491847104
      ],
      [
       73.4326664805876,
       4.18370489583162
      ],
      [
       73.43260429028,
       4.18372201796639
      ],
      [
       73.4325836891839,
       4.18373185122771
      ],
      [
       73.4325403777178,
       4.18374053385744
      ],
      [
       73.4324948453986,
       4.1837404425914
      ],
      [
       73.432455036181,
       4.18374719603159
      ],
      [
       73.4324375958824,
       4.18375015536113
      ],
      [
       73.4324272520819,
       4.18375190985739
      ],
      [
       73.4324133530652,
       4.18375188199607
      ],
      [
       73.4324018454368,
       4.18375368299367
      ],
      [
       73.4324052454932,
       4.18376962528636
      ],
      [
       73.4323612570375,
       4.18377767621857
      ],
      [
       73.4323619332875,
       4.18378139714833
      ],
      [
       73.4322676234908,
       4.1838033338077
      ],
      [
       73.432244110923,
       4.18380880317882
      ],
      [
       73.4322456015932,
       4.18381878110053
      ],
      [
       73.4322292545925,
       4.18382137816506
      ],
      [
       73.4322270881621,
       4.18381015089153
      ],
      [
       73.4322167866621,
       4.1838082989387
      ],
      [
       73.4322058251775,
       4.1838167398296
      ],
      [
       73.4321964529436,
       4.18382861589842
      ],
      [
       73.4321788856465,
       4.18383338456222
      ],
      [
       73.4321540115963,
       4.18384362795426
      ],
      [
       73.4321412202454,
       4.18385458196903
      ],
      [
       73.4321335645599,
       4.18386113940393
      ],
      [
       73.432122726405,
       4.18386689734676
      ],
      [
       73.4320908046088,
       4.18388009918953
      ],
      [
       73.43208836455,
       4.18388190931882
      ],
      [
       73.4320900536778,
       4.18388720764933
      ],
      [
       73.432060185666,
       4.1838944548749
      ],
      [
       73.4319659373566,
       4.18390585236933
      ],
      [
       73.4319834307426,
       4.1841234377277
      ],
      [
       73.4319734941514,
       4.18412424346943
      ],
      [
       73.431965356643,
       4.18413891643656
      ],
      [
       73.4319538455266,
       4.18415967431008
      ],
      [
       73.4319406650471,
       4.18416927373284
      ],
      [
       73.4319384777782,
       4.18417667412812
      ],
      [
       73.4319384617073,
       4.18418475261489
      ],
      [
       73.4319422627486,
       4.1841847602374
      ],
      [
       73.4319428320761,
       4.18418880018644
      ],
      [
       73.4319193181948,
       4.18419084930503
      ],
      [
       73.431873202709,
       4.18419547931595
      ],
      [
       73.4318270552933,
       4.18419940748778
      ],
      [
       73.4318054499281,
       4.1842015164997
      ],
      [
       73.4318037466712,
       4.18419290823617
      ],
      [
       73.4317982368009,
       4.18419071500009
      ],
      [
       73.4317934784404,
       4.18418882080086
      ],
      [
       73.4317898432376,
       4.18418196942342
      ],
      [
       73.4317844903797,
       4.18417555773042
      ],
      [
       73.4317781697469,
       4.18416798743857
      ],
      [
       73.4317714759859,
       4.18415691025085
      ],
      [
       73.4317608598268,
       4.18415113732191
      ],
      [
       73.4317586021618,
       4.18414457267173
      ],
      [
       73.4317525855054,
       4.18413723811933
      ],
      [
       73.4317526031253,
       4.18412838189925
      ],
      [
       73.4317561319263,
       4.18411854065411
      ],
      [
       73.4317609967117,
       4.18410497166316
      ],
      [
       73.43176362684,
       4.18409002448958
      ],
      [
       73.431760440307,
       4.18407904386618
      ],
      [
       73.4317583458645,
       4.1840583482407
      ],
      [
       73.4317550719823,
       4.18404916799407
      ],
      [
       73.4317528219166,
       4.18404285838466
      ],
      [
       73.4317506244655,
       4.18403726693109
      ],
      [
       73.4317506343395,
       4.18403230390283
      ],
      [
       73.4317495429711,
       4.18402807389887
      ],
      [
       73.4317505600208,
       4.18402348005479
      ],
      [
       73.4317505682485,
       4.18401934449934
      ],
      [
       73.4317336068852,
       4.18399390560907
      ],
      [
       73.4317058823399,
       4.18398181316741
      ],
      [
       73.4316921564117,
       4.18397582509789
      ],
      [
       73.4316498454405,
       4.18397102859841
      ],
      [
       73.4316107693438,
       4.18397283488061
      ],
      [
       73.4315835992105,
       4.18397409078167
      ],
      [
       73.4315532790773,
       4.183977242202
      ],
      [
       73.4315164273457,
       4.18398107234411
      ],
      [
       73.4314862261314,
       4.18398421224366
      ],
      [
       73.431474666553,
       4.18398541354034
      ],
      [
       73.4313860506116,
       4.1839831639277
      ],
      [
       73.4313408245206,
       4.18398987659329
      ],
      [
       73.431320994634,
       4.18399281934418
      ],
      [
       73.4313253735251,
       4.18402245448097
      ],
      [
       73.4313255994105,
       4.18404246809585
      ],
      [
       73.4313132026134,
       4.18411721540081
      ],
      [
       73.4313123234641,
       4.18412809924153
      ],
      [
       73.4313036523379,
       4.18415654068814
      ],
      [
       73.431290835633,
       4.18417841731416
      ],
      [
       73.4312888614777,
       4.18417965863706
      ],
      [
       73.4311438779662,
       4.18418432356891
      ],
      [
       73.4311363756049,
       4.18414778382116
      ],
      [
       73.4311351748739,
       4.18414193391579
      ],
      [
       73.4311238576294,
       4.18409242996011
      ],
      [
       73.4311277895504,
       4.18407600680061
      ],
      [
       73.4311309267352,
       4.18406290099349
      ],
      [
       73.4311309504923,
       4.18405096458849
      ],
      [
       73.4311283415395,
       4.18403988022067
      ],
      [
       73.4311218791902,
       4.18402975124928
      ],
      [
       73.4311134423115,
       4.18401652635998
      ],
      [
       73.4311024824965,
       4.18400466377876
      ],
      [
       73.4310737520098,
       4.1839789200177
      ],
      [
       73.4310449217613,
       4.18397886217261
      ],
      [
       73.4310176474637,
       4.18396955237984
      ],
      [
       73.4309759785659,
       4.18394854584243
      ],
      [
       73.4309470428037,
       4.18393859876822
      ],
      [
       73.430930102776,
       4.18393277606414
      ],
      [
       73.4309074038612,
       4.18392497304484
      ],
      [
       73.4308879658304,
       4.18390572484598
      ],
      [
       73.4308620908492,
       4.18390567292515
      ],
      [
       73.4308331510704,
       4.18389819831928
      ],
      [
       73.4308099918661,
       4.18389221662961
      ],
      [
       73.4307937623275,
       4.18387834215606
      ],
      [
       73.4307734321797,
       4.1838783013594
      ],
      [
       73.4307629586093,
       4.1838782803418
      ],
      [
       73.4307506376627,
       4.18387825561684
      ],
      [
       73.4307395947536,
       4.18385474761513
      ],
      [
       73.4307159085512,
       4.1838641884707
      ],
      [
       73.4306661505285,
       4.1838697489109
      ],
      [
       73.4306159465508,
       4.18387535819164
      ],
      [
       73.4305755806607,
       4.18387986853898
      ],
      [
       73.4305360744288,
       4.18388102729826
      ],
      [
       73.4304761412997,
       4.18388278623743
      ],
      [
       73.4304409326714,
       4.18388381887013
      ],
      [
       73.4303234277458,
       4.18390199728196
      ],
      [
       73.4302878103101,
       4.18390930252708
      ],
      [
       73.4302515161565,
       4.18391674568099
      ],
      [
       73.4302148182004,
       4.18392297167853
      ],
      [
       73.4301652975351,
       4.18392287226637
      ],
      [
       73.4301306324396,
       4.18392280267474
      ],
      [
       73.4300409535537,
       4.18391746696399
      ],
      [
       73.4299557175615,
       4.18391729583306
      ],
      [
       73.4298744456393,
       4.18391713265226
      ],
      [
       73.4298278919348,
       4.18390212562825
      ],
      [
       73.4297430928758,
       4.18387478793497
      ],
      [
       73.4296344929316,
       4.18385116360812
      ],
      [
       73.4295624420052,
       4.18383548950995
      ],
      [
       73.4294747342991,
       4.18381640985258
      ],
      [
       73.4293265417225,
       4.18380297842107
      ],
      [
       73.4292718734762,
       4.18380286861602
      ],
      [
       73.4291742503277,
       4.18379479297084
      ],
      [
       73.4290978564199,
       4.18378847369279
      ],
      [
       73.4290027938129,
       4.18375565217158
      ],
      [
       73.4289411037782,
       4.18372424063893
      ],
      [
       73.4289057655664,
       4.18370624644476
      ],
      [
       73.4288769971876,
       4.18367516511777
      ],
      [
       73.4288606445124,
       4.18363903988495
      ],
      [
       73.4288474395842,
       4.1835931115542
      ],
      [
       73.4288424828541,
       4.18353077057266
      ],
      [
       73.4288397720664,
       4.18349668039177
      ],
      [
       73.4288398695401,
       4.18344777093739
      ],
      [
       73.4288246042285,
       4.18338172133067
      ],
      [
       73.428823687644,
       4.18333544509846
      ],
      [
       73.4288258063989,
       4.18330277449284
      ],
      [
       73.4288187912315,
       4.18327040567565
      ],
      [
       73.4288138957844,
       4.18324781888692
      ],
      [
       73.4288139254941,
       4.18323291083169
      ],
      [
       73.4288090749594,
       4.18318417140206
      ],
      [
       73.4288091529532,
       4.18314503425281
      ],
      [
       73.4288021417289,
       4.18310390687004
      ],
      [
       73.4287916531407,
       4.18305764577439
      ],
      [
       73.4287801386477,
       4.1830068563752
      ],
      [
       73.4287665742417,
       4.1829537423111
      ],
      [
       73.4287466284975,
       4.18287969975503
      ],
      [
       73.4287396455247,
       4.18285377536103
      ],
      [
       73.4286731539289,
       4.18280151810127
      ],
      [
       73.4286369674687,
       4.1827319049556
      ],
      [
       73.4286280425976,
       4.18266301579112
      ],
      [
       73.428613779298,
       4.18254930655333
      ],
      [
       73.4286008741093,
       4.1823818964704
      ],
      [
       73.4285824180254,
       4.18214248763387
      ],
      [
       73.4285461239292,
       4.18208712222325
      ],
      [
       73.4284960528631,
       4.18201074111968
      ],
      [
       73.4284379106636,
       4.18192204924512
      ],
      [
       73.4285822730101,
       4.18198834368725
      ],
      [
       73.4286435082384,
       4.18198846668334
      ],
      [
       73.4287312236416,
       4.18198864285872
      ],
      [
       73.4288503839744,
       4.18198888217513
      ],
      [
       73.4289349339132,
       4.18196707459474
      ],
      [
       73.4290747813412,
       4.18194865448093
      ],
      [
       73.4292084373969,
       4.1819310493838
      ],
      [
       73.4293839042707,
       4.18193140166559
      ],
      [
       73.4295775656448,
       4.18193179043049
      ],
      [
       73.429753468278,
       4.18193858695997
      ],
      [
       73.4298580919864,
       4.18193879694335
      ],
      [
       73.4299838374484,
       4.18192008247728
      ],
      [
       73.4300960545804,
       4.1819033810442
      ],
      [
       73.4301694085046,
       4.1818924635768
      ],
      [
       73.4302819711507,
       4.18189268943099
      ],
      [
       73.4305554478761,
       4.18189323808788
      ],
      [
       73.4307798287057,
       4.18187176685003
      ],
      [
       73.430926854687,
       4.18184170467538
      ],
      [
       73.4311138271062,
       4.18182957615876
      ],
      [
       73.431245821766,
       4.181842123656
      ],
      [
       73.4313553035672,
       4.18184120641329
      ],
      [
       73.431445162777,
       4.18184138657643
      ],
      [
       73.4314979372883,
       4.18182581555376
      ],
      [
       73.4315643570184,
       4.18182464193113
      ],
      [
       73.4316221195182,
       4.18181098635422
      ],
      [
       73.4317146301744,
       4.18178911481292
      ],
      [
       73.4318241138956,
       4.18176323123714
      ],
      [
       73.4319494119098,
       4.1817462437343
      ],
      [
       73.4320621144461,
       4.18173096278944
      ],
      [
       73.4321923424525,
       4.18172060131706
      ],
      [
       73.4323295985166,
       4.18170539485387
      ],
      [
       73.4324641727182,
       4.18168224102618
      ],
      [
       73.4326043963409,
       4.18166130599834
      ],
      [
       73.4327216934682,
       4.18163559980969
      ],
      [
       73.4329790038387,
       4.18159193608711
      ],
      [
       73.4331414362207,
       4.18156437226092
      ],
      [
       73.4332370095594,
       4.18153149984841
      ],
      [
       73.4333490184664,
       4.18151807573956
      ],
      [
       73.4334943763261,
       4.18147712677666
      ],
      [
       73.43360797824,
       4.18143259449239
      ],
      [
       73.433684995873,
       4.18140240242542
      ],
      [
       73.4337684333124,
       4.18139334601846
      ],
      [
       73.4338196121271,
       4.18139344846181
      ],
      [
       73.4339069117974,
       4.18137716771112
      ],
      [
       73.4340129849329,
       4.18134832607094
      ],
      [
       73.4341114273371,
       4.18133799196899
      ],
      [
       73.434275180746,
       4.18130696144251
      ],
      [
       73.4343636883566,
       4.18129019018181
      ],
      [
       73.4345159061453,
       4.1812610112267
      ],
      [
       73.4345813096763,
       4.18125132900927
      ],
      [
       73.4346841377321,
       4.18124597298748
      ],
      [
       73.4347504388058,
       4.18123653220208
      ],
      [
       73.4348575405985,
       4.18121357074099
      ],
      [
       73.4349241335624,
       4.18119048302353
      ],
      [
       73.4349836844642,
       4.18117567498033
      ],
      [
       73.4350419433593,
       4.18115333565926
      ],
      [
       73.4350870715238,
       4.18113462906051
      ],
      [
       73.4351635084753,
       4.1811256154615
      ],
      [
       73.4352135363805,
       4.18111971606724
      ],
      [
       73.4352715282437,
       4.18110666654849
      ],
      [
       73.4353163763065,
       4.18109657418372
      ],
      [
       73.4353569755685,
       4.18108743735438
      ],
      [
       73.4354676858945,
       4.18106571292285
      ],
      [
       73.4355578400429,
       4.18104802236508
      ],
      [
       73.4356425807308,
       4.18101949141505
      ],
      [
       73.4356684437493,
       4.18100148511251
      ],
      [
       73.4356742768352,
       4.1809728660439
      ],
      [
       73.4356647115014,
       4.18094726112986
      ],
      [
       73.4356552492001,
       4.18092193405651
      ],
      [
       73.4356622953266,
       4.18090069869502
      ],
      [
       73.435678135091,
       4.18089405446799
      ],
      [
       73.4356952933255,
       4.18090249377101
      ],
      [
       73.4357044802446,
       4.18091679991807
      ],
      [
       73.4357044335768,
       4.18094033365354
      ],
      [
       73.4357177956383,
       4.18096221301173
      ],
      [
       73.4357268293719,
       4.18097700539154
      ],
      [
       73.4357506871046,
       4.18096231764835
      ],
      [
       73.435797848909,
       4.18094052038681
      ],
      [
       73.4358083715614,
       4.18091532731323
      ],
      [
       73.4358701730657,
       4.18089385050808
      ],
      [
       73.4360116938908,
       4.18085329213207
      ],
      [
       73.4371067919118,
       4.18059750121602
      ],
      [
       73.440236197177,
       4.17985546613649
      ],
      [
       73.4425619167598,
       4.17932493706676
      ],
      [
       73.4426478177019,
       4.17930583716088
      ],
      [
       73.4425881042763,
       4.17911960760784
      ],
      [
       73.4358159164003,
       4.18070162703789
      ],
      [
       73.4338826334395,
       4.18113552114871
      ],
      [
       73.4317882288319,
       4.1815020078241
      ],
      [
       73.4284111930998,
       4.18166053432091
      ],
      [
       73.4263445766704,
       4.18167694607922
      ]
     ]
    ]
   },
   "properties": {
    "FID": 4,
    "Id": 0,
    "Area_SQM": 394046.125152,
    "Shape__Area": 394046.11154174805,
    "Shape__Length": 8249.18252062705
   }
  },
  {
   "type": "Feature",
   "id": 5,
   "geometry": {
    "type": "Polygon",
    "coordinates": [
     [
      [
       73.4462764223261,
       4.18108696960855
      ],
      [
       73.4462697138465,
       4.18109147442985
      ],
      [
       73.4462548503535,
       4.18109955243069
      ],
      [
       73.4462317194464,
       4.18110882042033
      ],
      [
       73.4462159041808,
       4.18111263251174
      ],
      [
       73.4461961653677,
       4.18111780690476
      ],
      [
       73.4461754230092,
       4.18113676795535
      ],
      [
       73.4461605236082,
       4.18114752728528
      ],
      [
       73.446150082592,
       4.18115702304521
      ],
      [
       73.4461503459507,
       4.18116736392581
      ],
      [
       73.4461534342879,
       4.18119035596634
      ],
      [
       73.4461468706865,
       4.18120636171454
      ],
      [
       73.4461395283597,
       4.18122902104049
      ],
      [
       73.4461263076996,
       4.18126137781278
      ],
      [
       73.4461244307916,
       4.18129007820885
      ],
      [
       73.4461250296927,
       4.18129332059472
      ],
      [
       73.4461763740465,
       4.18156389335826
      ],
      [
       73.4462593221206,
       4.18455540310314
      ],
      [
       73.4464137503811,
       4.18445910802054
      ],
      [
       73.4464386337024,
       4.18446015767597
      ],
      [
       73.4464551944043,
       4.1839913384393
      ],
      [
       73.4465459235851,
       4.18392210877899
      ],
      [
       73.4467351599106,
       4.18375291870116
      ],
      [
       73.4468414752249,
       4.18361970991172
      ],
      [
       73.4468566682736,
       4.18360348707191
      ],
      [
       73.4469416679618,
       4.18350996048769
      ],
      [
       73.4469784976404,
       4.18353753044884
      ],
      [
       73.4470658172976,
       4.18365814907088
      ],
      [
       73.4471150044879,
       4.18375822829263
      ],
      [
       73.4471671844519,
       4.18386900832652
      ],
      [
       73.4471843841115,
       4.18389679342918
      ],
      [
       73.4471920408274,
       4.18390933933618
      ],
      [
       73.4471980625908,
       4.18391920601872
      ],
      [
       73.4472288046028,
       4.18395071681283
      ],
      [
       73.4472481743852,
       4.18397791296975
      ],
      [
       73.4472551218769,
       4.18398743602799
      ],
      [
       73.4472627538731,
       4.18396223241894
      ],
      [
       73.4472743103271,
       4.18393978492834
      ],
      [
       73.4472847282018,
       4.18391919452454
      ],
      [
       73.4472957790064,
       4.18387679782927
      ],
      [
       73.4473411138425,
       4.1837783903267
      ],
      [
       73.4474721255338,
       4.18370589891656
      ],
      [
       73.4475610745188,
       4.18365601417523
      ],
      [
       73.4476618802657,
       4.1835432290252
      ],
      [
       73.4477368984382,
       4.1835153493369
      ],
      [
       73.4477749683316,
       4.18351416604035
      ],
      [
       73.4477757210853,
       4.18350972173816
      ],
      [
       73.4477976619411,
       4.18344569101562
      ],
      [
       73.4478071396824,
       4.18342817533801
      ],
      [
       73.447818071993,
       4.18340797028996
      ],
      [
       73.4478282106444,
       4.18339377127932
      ],
      [
       73.4478287599425,
       4.18338378108426
      ],
      [
       73.4478620009482,
       4.18327969098028
      ],
      [
       73.4480165378016,
       4.18316097853861
      ],
      [
       73.4479726480809,
       4.18308860655395
      ],
      [
       73.4480125360008,
       4.18304422140597
      ],
      [
       73.4480120644928,
       4.18302018549454
      ],
      [
       73.4480151774958,
       4.18300001014159
      ],
      [
       73.4480027890854,
       4.18296694775518
      ],
      [
       73.4479988459553,
       4.18295308525111
      ],
      [
       73.4478682105312,
       4.18290269867713
      ],
      [
       73.4478707459411,
       4.1828693692781
      ],
      [
       73.4479285701206,
       4.18276867766194
      ],
      [
       73.4479524599169,
       4.18269879148917
      ],
      [
       73.4479510196845,
       4.18269511334307
      ],
      [
       73.4480364578478,
       4.1825022533446
      ],
      [
       73.4480332219693,
       4.18243337957745
      ],
      [
       73.4481047673514,
       4.18233565519921
      ],
      [
       73.4481370249947,
       4.18227394919986
      ],
      [
       73.448148660871,
       4.18224543905501
      ],
      [
       73.4481757720445,
       4.18221104242892
      ],
      [
       73.4481932610578,
       4.18215908408299
      ],
      [
       73.4483166490699,
       4.18213031629197
      ],
      [
       73.4484818089099,
       4.18219879949784
      ],
      [
       73.4484969414922,
       4.1821620033633
      ],
      [
       73.4485837115614,
       4.18195314515977
      ],
      [
       73.4485999223141,
       4.18183071709092
      ],
      [
       73.4486315189994,
       4.18172080592639
      ],
      [
       73.4486455783598,
       4.18166453784358
      ],
      [
       73.4486408356736,
       4.18157816636696
      ],
      [
       73.4487158109209,
       4.18137461678663
      ],
      [
       73.4487251434751,
       4.18130906880547
      ],
      [
       73.4487267741265,
       4.18119852123642
      ],
      [
       73.4487689419682,
       4.18106785259439
      ],
      [
       73.4487952030356,
       4.18087896001967
      ],
      [
       73.4488302251508,
       4.18072136998744
      ],
      [
       73.4488327668221,
       4.18059182104935
      ],
      [
       73.4488030765667,
       4.180528847276
      ],
      [
       73.448773241835,
       4.18049812515276
      ],
      [
       73.4487431918489,
       4.18048113700922
      ],
      [
       73.4487053164574,
       4.18049295146098
      ],
      [
       73.4486405026237,
       4.18050038518346
      ],
      [
       73.4486061651049,
       4.18051962143102
      ],
      [
       73.4485182150893,
       4.18051840526633
      ],
      [
       73.4484297580842,
       4.18046354459696
      ],
      [
       73.4481604978891,
       4.18046835998182
      ],
      [
       73.448062230771,
       4.18052585558295
      ],
      [
       73.4480263084766,
       4.18054208530193
      ],
      [
       73.4478584738917,
       4.18059078192423
      ],
      [
       73.447792261026,
       4.18059923923569
      ],
      [
       73.4477162599331,
       4.18061915516683
      ],
      [
       73.4477152296336,
       4.18061176365973
      ],
      [
       73.4476416175225,
       4.18066405018802
      ],
      [
       73.4475807150643,
       4.18071109677895
      ],
      [
       73.4475685866935,
       4.18074180532503
      ],
      [
       73.44752050205,
       4.18073688883322
      ],
      [
       73.4475097465896,
       4.18075513541304
      ],
      [
       73.4474843448938,
       4.18075253836376
      ],
      [
       73.4474730871675,
       4.1807829691891
      ],
      [
       73.4474772812362,
       4.18080158998434
      ],
      [
       73.4474553185753,
       4.18082962655088
      ],
      [
       73.4473992775543,
       4.18084955219558
      ],
      [
       73.4472046399939,
       4.18086483390774
      ],
      [
       73.4471914561831,
       4.18085287029856
      ],
      [
       73.4471749253632,
       4.18083491142777
      ],
      [
       73.4471330703126,
       4.18080932292988
      ],
      [
       73.447125687632,
       4.18080170810462
      ],
      [
       73.4471010329073,
       4.18079989207658
      ],
      [
       73.4471171764089,
       4.18079771930071
      ],
      [
       73.4470312150622,
       4.18079521639381
      ],
      [
       73.4469582487231,
       4.18080998887863
      ],
      [
       73.4469277395991,
       4.18085284526217
      ],
      [
       73.4468987468438,
       4.18088540860466
      ],
      [
       73.446752618926,
       4.18095371909839
      ],
      [
       73.4467063013292,
       4.18096445225437
      ],
      [
       73.4466871557708,
       4.18094646376891
      ],
      [
       73.4466181465731,
       4.18092542721103
      ],
      [
       73.4466000669723,
       4.18095663848939
      ],
      [
       73.4465347609472,
       4.18099903599583
      ],
      [
       73.446428443846,
       4.18102317731469
      ],
      [
       73.4464164081861,
       4.18103331381259
      ],
      [
       73.4463955203602,
       4.18104107328126
      ],
      [
       73.4463781921041,
       4.18104842743203
      ],
      [
       73.4463584321851,
       4.18105425744331
      ],
      [
       73.4463308323689,
       4.18106373089541
      ],
      [
       73.4462911406474,
       4.1810789699975
      ],
      [
       73.4462764223261,
       4.18108696960855
      ]
     ]
    ]
   },
   "properties": {
    "FID": 5,
    "Id": 0,
    "Area_SQM": 79171.7130595,
    "Shape__Area": 79171.70155334473,
    "Shape__Length": 1420.6936288760019
   }
  }
 ]
}